ORBCOMM FM24 [-]        
1 25478U 98053D   24045.39030536  .00002776  00000+0  10098-2 0  9996
2 25478  45.0088  61.3662 0003269 285.2367  74.8118 14.35246861327157
ORBCOMM FM25 [-]        
1 25479U 98053E   24045.42511930  .00002831  00000+0  10289-2 0  9997
2 25479  45.0079  59.4406 0005503 304.4523  55.5804 14.35231293327457
ORBCOMM FM28 [-]        
1 25482U 98053H   24045.56474108  .00002999  00000+0  10774-2 0  9995
2 25482  45.0075 357.8084 0004991 353.4299   6.6482 14.35676143328073
ORBCOMM FM30 [-]        
1 25980U 99065A   24045.57928123  .00002136  00000+0  79420-3 0  9991
2 25980  45.0304 237.9364 0006290  85.7027 274.4539 14.34874292264215
ORBCOMM FM31 [-]        
1 25981U 99065B   24045.47565230  .00002104  00000+0  78298-3 0  9994
2 25981  45.0217 232.1827 0003592 111.4784 248.6446 14.34884638263752
ORBCOMM FM32 [+]        
1 25982U 99065C   24045.60433333  .00001886  00000+0  72134-3 0  9997
2 25982  45.0146 244.7561 0005968 110.2810 249.8679 14.33857755264418
